ONEWEB-0068             
1 45446U 20020Y   26201.18983510 -.00000841  00000+0 -24077-2 0  9999
2 45446  87.8892  14.4939 0001641  95.5474 264.5841 13.11419147306925
ONEWEB-0046             
1 45447U 20020Z   26201.02890224  .00000037  00000+0  67493-4 0  9998
2 45447  87.8887  14.5296 0001591  86.3405 273.7905 13.11415874306918
ONEWEB-0063             
1 45448U 20020AA  26200.98157230 -.00000366  00000+0 -10696-2 0  9994
2 45448  87.8893  14.5418 0001842  81.6661 278.4676 13.11418004306996
ONEWEB-0019             
1 45449U 20020AB  26201.02030464  .00000350  00000+0  95060-3 0  9990
2 45449  87.8891  14.5174 0002008  96.0337 264.1020 13.11415120306844
ONEWEB-0094             
1 45450U 20020AC  26201.00737798 -.00000045  00000+0 -15014-3 0  9998
2 45450  87.9160 359.3229 0001856 101.1198 259.0142 13.17648647310638
ONEWEB-0087             
1 45451U 20020AD  26200.99147188  .00000005  00000+0 -21343-4 0  9992
2 45451  87.8902  14.5155 0001607  97.4544 262.6766 13.11418843306887
ONEWEB-0082             
1 45452U 20020AE  26201.21696832 -.00000282  00000+0 -83135-3 0  9998
2 45452  87.8898  14.4841 0001363  94.6428 265.4855 13.11418317307003
ONEWEB-0050             
1 45453U 20020AF  26201.10815035  .00000938  00000+0  93900-4 0  9993
2 45453  88.9279 228.7382 0002996 161.5197 198.6142 14.90480481345286
ONEWEB-0034             
1 45454U 20020AG  26201.02568512  .00000160  00000+0  41524-3 0  9991
2 45454  87.8895  14.5316 0001802  89.2441 270.8893 13.11414444306898
ONEWEB-0060             
1 45455U 20020AH  26201.20947852 -.00000491  00000+0 -14217-2 0  9997
2 45455  87.8890  14.4908 0001440 125.3841 234.7422 13.11417426306872
ONEWEB-0086             
1 45456U 20020AJ  26201.18814308 -.00000202  00000+0 -60606-3 0  9998
2 45456  87.8895  14.4929 0002025 114.4322 245.7017 13.11415898306934
ONEWEB-0088             
1 45457U 20020AK  26201.24254217  .00000549  00000+0  15122-2 0  9997
2 45457  87.8904  14.4573 0001618  79.5838 280.5473 13.11416401306878
ONEWEB-0102             
1 47258U 20100A   26200.91594906  .00000316  00000+0  84245-3 0  9997
2 47258  87.8969 344.1670 0002074 102.8820 257.2540 13.12443976269028
ONEWEB-0109             
1 47259U 20100B   26200.92441957  .00000410  00000+0  11036-2 0  9998
2 47259  87.8978 344.1517 0001996  96.3859 263.7497 13.12443834268856
ONEWEB-0110             
1 47260U 20100C   26200.95152842 -.00000232  00000+0 -68082-3 0  9993
2 47260  87.8977 344.1304 0001881 106.5318 253.6018 13.12442323269027
ONEWEB-0111             
1 47261U 20100D   26201.13449316 -.00000152  00000+0 -45679-3 0  9998
2 47261  87.8976 344.1128 0001771  99.3621 260.7708 13.12443955268885
ONEWEB-0114             
1 47262U 20100E   26201.31746598  .00000345  00000+0  92399-3 0  9994
2 47262  87.8981 344.0744 0002073  96.2564 263.8800 13.12442740268869
ONEWEB-0117             
1 47263U 20100F   26200.92781167  .00000419  00000+0  11305-2 0  9991
2 47263  87.8978 344.1415 0001875  99.2474 260.8867 13.12442534268821
ONEWEB-0118             
1 47264U 20100G   26200.88545204 -.00000464  00000+0 -13254-2 0  9994
2 47264  87.8976 344.1527 0001906  87.1473 272.9874 13.12442331269013
ONEWEB-0119             
1 47265U 20100H   26200.91087012  .00000087  00000+0  20514-3 0  9994
2 47265  87.8966 344.1615 0001893  96.5169 263.6175 13.12443264268995
ONEWEB-0120             
1 47266U 20100J   26201.16343944  .00000413  00000+0  11130-2 0  9998
2 47266  87.8969 344.1130 0002043  95.4528 264.6834 13.12441709269059
ONEWEB-0121             
1 47267U 20100K   26201.15143921  .00000388  00000+0  10432-2 0  9996
2 47267  87.8978 344.1045 0001606 102.4648 257.6660 13.12442648268962
ONEWEB-0122             
1 47268U 20100L   26200.91680030  .00000253  00000+0  66759-3 0  9992
2 47268  87.8978 344.1561 0002034  99.1957 260.9401 13.12442414268845
ONEWEB-0123             
1 47269U 20100M   26200.83632175  .00000231  00000+0  60759-3 0  9991
2 47269  87.8966 344.1756 0001853  93.9402 266.1939 13.12443826268970
ONEWEB-0124             
1 47270U 20100N   26201.13110188 -.00000160  00000+0 -48038-3 0  9991
2 47270  87.8966 344.1195 0001749  98.4295 261.7031 13.12443467268899
ONEWEB-0125             
1 47271U 20100P   26200.88036228 -.00000347  00000+0 -10005-2 0  9994
2 47271  87.8979 344.1564 0001568  93.7575 266.3733 13.12442223268925
ONEWEB-0126             
1 47272U 20100Q   26200.90084671 -.00000214  00000+0 -63084-3 0  9992
2 47272  87.8970 344.1660 0001967  95.2331 264.9022 13.12443356268994
ONEWEB-0127             
1 47273U 20100R   26200.94305253  .00000100  00000+0  24171-3 0  9995
2 47273  87.8967 344.1542 0002006  98.2103 261.9253 13.12442480269020
ONEWEB-0128             
1 47274U 20100S   26200.88883391 -.00000431  00000+0 -12333-2 0  9998
2 47274  87.8966 344.1791 0001864 107.3999 252.7334 13.12443366269035
ONEWEB-0129             
1 47275U 20100T   26200.94475027  .00000085  00000+0  20125-3 0  9991
2 47275  87.8978 344.1448 0002909  90.7298 269.4164 13.12441870268972
