OBJECT_NAME,OBJECT_ID,EPOCH,MEAN_MOTION,ECCENTRICITY,INCLINATION,RA_OF_ASC_NODE,ARG_OF_PERICENTER,MEAN_ANOMALY,EPHEMERIS_TYPE,CLASSIFICATION_TYPE,NORAD_CAT_ID,ELEMENT_SET_NO,REV_AT_EPOCH,BSTAR,MEAN_MOTION_DOT,MEAN_MOTION_DDOT
ONEWEB-0068,2020-020Y,2026-07-20T04:33:21.752640,13.11419147,.00016415,87.8892,14.4939,95.5474,264.5841,0,U,45446,999,30692,-.2407658E-2,-.841E-5,0
ONEWEB-0046,2020-020Z,2026-07-20T00:41:37.153536,13.11415874,.00015917,87.8887,14.5296,86.3405,273.7905,0,U,45447,999,30691,.67493364E-4,.37E-6,0
ONEWEB-0063,2020-020AA,2026-07-19T23:33:27.846720,13.11418004,.00018421,87.8893,14.5418,81.6661,278.4676,0,U,45448,999,30699,-.10696053E-2,-.366E-5,0
ONEWEB-0019,2020-020AB,2026-07-20T00:29:14.320896,13.11415120,.00020084,87.8891,14.5174,96.0337,264.1020,0,U,45449,999,30684,.95059852E-3,.35E-5,0
ONEWEB-0094,2020-020AC,2026-07-20T00:10:37.457472,13.17648647,.00018562,87.9160,359.3229,101.1198,259.0142,0,U,45450,999,31063,-.15014216E-3,-.45E-6,0
ONEWEB-0087,2020-020AD,2026-07-19T23:47:43.170432,13.11418843,.00016079,87.8902,14.5155,97.4544,262.6766,0,U,45451,999,30688,-.21342584E-4,.5E-7,0
ONEWEB-0082,2020-020AE,2026-07-20T05:12:26.062848,13.11418317,.00013632,87.8898,14.4841,94.6428,265.4855,0,U,45452,999,30700,-.83135161E-3,-.282E-5,0
ONEWEB-0050,2020-020AF,2026-07-20T02:35:44.190240,14.90480481,.00029963,88.9279,228.7382,161.5197,198.6142,0,U,45453,999,34528,.93899794E-4,.938E-5,0
ONEWEB-0034,2020-020AG,2026-07-20T00:36:59.194368,13.11414444,.00018028,87.8895,14.5316,89.2441,270.8893,0,U,45454,999,30689,.41523962E-3,.16E-5,0
ONEWEB-0060,2020-020AH,2026-07-20T05:01:38.944128,13.11417426,.00014409,87.8890,14.4908,125.3841,234.7422,0,U,45455,999,30687,-.14217328E-2,-.491E-5,0
ONEWEB-0086,2020-020AJ,2026-07-20T04:30:55.562112,13.11415898,.0002025,87.8895,14.4929,114.4322,245.7017,0,U,45456,999,30693,-.60606238E-3,-.202E-5,0
ONEWEB-0088,2020-020AK,2026-07-20T05:49:15.643488,13.11416401,.00016184,87.8904,14.4573,79.5838,280.5473,0,U,45457,999,30687,.15122118E-2,.549E-5,0
ONEWEB-0102,2020-100A,2026-07-19T21:58:57.998784,13.12443976,.00020744,87.8969,344.1670,102.8820,257.2540,0,U,47258,999,26902,.84244698E-3,.316E-5,0
ONEWEB-0109,2020-100B,2026-07-19T22:11:09.850848,13.12443834,.00019963,87.8978,344.1517,96.3859,263.7497,0,U,47259,999,26885,.11035501E-2,.41E-5,0
ONEWEB-0110,2020-100C,2026-07-19T22:50:12.055488,13.12442323,.00018819,87.8977,344.1304,106.5318,253.6018,0,U,47260,999,26902,-.68081754E-3,-.232E-5,0
ONEWEB-0111,2020-100D,2026-07-20T03:13:40.209024,13.12443955,.0001771,87.8976,344.1128,99.3621,260.7708,0,U,47261,999,26888,-.45679318E-3,-.152E-5,0
ONEWEB-0114,2020-100E,2026-07-20T07:37:09.060672,13.12442740,.00020731,87.8981,344.0744,96.2564,263.8800,0,U,47262,999,26886,.92399093E-3,.345E-5,0
ONEWEB-0117,2020-100F,2026-07-19T22:16:02.928288,13.12442534,.00018754,87.8978,344.1415,99.2474,260.8867,0,U,47263,999,26882,.1130504E-2,.419E-5,0
ONEWEB-0118,2020-100G,2026-07-19T21:15:03.056256,13.12442331,.00019067,87.8976,344.1527,87.1473,272.9874,0,U,47264,999,26901,-.13253604E-2,-.464E-5,0
ONEWEB-0119,2020-100H,2026-07-19T21:51:39.178368,13.12443264,.00018932,87.8966,344.1615,96.5169,263.6175,0,U,47265,999,26899,.20514393E-3,.87E-6,0
ONEWEB-0120,2020-100J,2026-07-20T03:55:21.167616,13.12441709,.00020433,87.8969,344.1130,95.4528,264.6834,0,U,47266,999,26905,.11130488E-2,.413E-5,0
ONEWEB-0121,2020-100K,2026-07-20T03:38:04.347744,13.12442648,.00016062,87.8978,344.1045,102.4648,257.6660,0,U,47267,999,26896,.1043174E-2,.388E-5,0
ONEWEB-0122,2020-100L,2026-07-19T22:00:11.545920,13.12442414,.00020343,87.8978,344.1561,99.1957,260.9401,0,U,47268,999,26884,.66758583E-3,.253E-5,0
ONEWEB-0123,2020-100M,2026-07-19T20:04:18.199200,13.12443826,.00018532,87.8966,344.1756,93.9402,266.1939,0,U,47269,999,26897,.60758511E-3,.231E-5,0
ONEWEB-0124,2020-100N,2026-07-20T03:08:47.202432,13.12443467,.00017493,87.8966,344.1195,98.4295,261.7031,0,U,47270,999,26889,-.48037781E-3,-.16E-5,0
ONEWEB-0125,2020-100P,2026-07-19T21:07:43.300992,13.12442223,.00015685,87.8979,344.1564,93.7575,266.3733,0,U,47271,999,26892,-.10005208E-2,-.347E-5,0
ONEWEB-0126,2020-100Q,2026-07-19T21:37:13.155744,13.12443356,.00019678,87.8970,344.1660,95.2331,264.9022,0,U,47272,999,26899,-.63084371E-3,-.214E-5,0
ONEWEB-0127,2020-100R,2026-07-19T22:37:59.738592,13.12442480,.00020069,87.8967,344.1542,98.2103,261.9253,0,U,47273,999,26902,.24171089E-3,.1E-5,0
ONEWEB-0128,2020-100S,2026-07-19T21:19:55.249824,13.12443366,.00018642,87.8966,344.1791,107.3999,252.7334,0,U,47274,999,26903,-.12332881E-2,-.431E-5,0
ONEWEB-0129,2020-100T,2026-07-19T22:40:26.423328,13.12441870,.00029095,87.8978,344.1448,90.7298,269.4164,0,U,47275,999,26897,.20124928E-3,.85E-6,0
